{
  "norad_id": 53251,
  "name": "STARLINK-4129",
  "history": [
    {
      "epoch": "2026-04-16T18:58:02.868672Z",
      "apogee_km": 540.9857333252585,
      "perigee_km": 538.5395640094903,
      "latitude_deg": 2.988318001612239e-05,
      "longitude_deg": -106.36489523697102,
      "height_km": 540.7026451371115,
      "semi_major_axis_km": 6917.899648667374,
      "eccentricity": 0.0001768,
      "inclination_deg": 53.2194,
      "raan_deg": 23.08,
      "arg_perigee_deg": 92.0926,
      "mean_anomaly_deg": 268.0269,
      "mean_motion_rev_day": 15.08833699
    },
    {
      "epoch": "2026-04-17T21:59:36.340512Z",
      "apogee_km": 541.0236081570602,
      "perigee_km": 538.487647077628,
      "latitude_deg": 1.0937917587951443e-05,
      "longitude_deg": -157.91909078380954,
      "height_km": 540.7233999801731,
      "semi_major_axis_km": 6917.892627617343,
      "eccentricity": 0.00018329,
      "inclination_deg": 53.2193,
      "raan_deg": 18.0252,
      "arg_perigee_deg": 93.2794,
      "mean_anomaly_deg": 266.8408,
      "mean_motion_rev_day": 15.08835996
    },
    {
      "epoch": "2026-04-18T10:42:41.331744Z",
      "apogee_km": 541.0417707834877,
      "perigee_km": 538.4551734054712,
      "latitude_deg": -1.1825532482476484e-05,
      "longitude_deg": 8.409083703198577,
      "height_km": 540.7064680847549,
      "semi_major_axis_km": 6917.885472094479,
      "eccentricity": 0.00018695,
      "inclination_deg": 53.2192,
      "raan_deg": 15.6465,
      "arg_perigee_deg": 92.7841,
      "mean_anomaly_deg": 267.3365,
      "mean_motion_rev_day": 15.08838337
    },
    {
      "epoch": "2026-04-19T10:33:28.093536Z",
      "apogee_km": 541.2683119879575,
      "perigee_km": 538.1965012566407,
      "latitude_deg": 4.058065668509893e-05,
      "longitude_deg": 5.273947632508422,
      "height_km": 540.4881279655577,
      "semi_major_axis_km": 6917.869406622299,
      "eccentricity": 0.00022202,
      "inclination_deg": 53.2196,
      "raan_deg": 11.1855,
      "arg_perigee_deg": 84.8081,
      "mean_anomaly_deg": 275.3165,
      "mean_motion_rev_day": 15.08843593
    },
    {
      "epoch": "2026-04-20T10:24:16.086528Z",
      "apogee_km": 541.4805114612927,
      "perigee_km": 538.0352614499388,
      "latitude_deg": 1.081634481754345e-05,
      "longitude_deg": 2.1336053207147936,
      "height_km": 540.5411726849485,
      "semi_major_axis_km": 6917.894886455615,
      "eccentricity": 0.00024901,
      "inclination_deg": 53.2185,
      "raan_deg": 6.7245,
      "arg_perigee_deg": 86.3092,
      "mean_anomaly_deg": 273.8185,
      "mean_motion_rev_day": 15.08835257
    },
    {
      "epoch": "2026-04-21T02:18:07.007616Z",
      "apogee_km": 540.9353781049995,
      "perigee_km": 538.5498165046647,
      "latitude_deg": 4.382881639133777e-05,
      "longitude_deg": 120.04557093722403,
      "height_km": 540.5791644897184,
      "semi_major_axis_km": 6917.879597304832,
      "eccentricity": 0.00017242,
      "inclination_deg": 53.2174,
      "raan_deg": 3.7515,
      "arg_perigee_deg": 87.1829,
      "mean_anomaly_deg": 272.9361,
      "mean_motion_rev_day": 15.08840259
    },
    {
      "epoch": "2026-04-22T02:08:53.663136Z",
      "apogee_km": 540.9777357047615,
      "perigee_km": 538.5036259309945,
      "latitude_deg": 2.3094498194307544e-05,
      "longitude_deg": 116.90982247269505,
      "height_km": 540.7098257575077,
      "semi_major_axis_km": 6917.877680817878,
      "eccentricity": 0.00017882,
      "inclination_deg": 53.2186,
      "raan_deg": 359.2895,
      "arg_perigee_deg": 93.4256,
      "mean_anomaly_deg": 266.6941,
      "mean_motion_rev_day": 15.08840886
    },
    {
      "epoch": "2026-04-23T01:59:41.275104Z",
      "apogee_km": 540.9368637292273,
      "perigee_km": 538.5717750449548,
      "latitude_deg": 3.0361772146156086e-07,
      "longitude_deg": 113.7721765941148,
      "height_km": 540.6365766743764,
      "semi_major_axis_km": 6917.89131938709,
      "eccentricity": 0.00017094,
      "inclination_deg": 53.2173,
      "raan_deg": 354.8296,
      "arg_perigee_deg": 89.3728,
      "mean_anomaly_deg": 270.746,
      "mean_motion_rev_day": 15.08836424
    }
  ]
}